{
  "type": "FeatureCollection",
  "features": [
    {
      "type": "Feature",
      "properties": {
        "norad_id": 41026,
        "name": "YAOGAN-28",
        "group": "resource",
        "lat": -79.66005105117557,
        "lon": 176.30616869860188,
        "alt_km": 508.39159871394713,
        "timestamp": "2025-12-20T05:41:49.675520+00:00",
        "meta_object_name": "YAOGAN-28",
        "meta_object_id": "2015-064A",
        "meta_epoch": "2025-12-19T22:10:59.608128",
        "meta_mean_motion": 15.24463093,
        "meta_eccentricity": 0.0012612,
        "meta_inclination": 97.2809,
        "meta_ra_of_asc_node": 131.5143,
        "meta_arg_of_pericenter": 103.1502,
        "meta_mean_anomaly": 257.1144,
        "meta_ephemeris_type": 0,
        "meta_classification_type": "U",
        "meta_norad_cat_id": 41026,
        "meta_element_set_no": 999,
        "meta_rev_at_epoch": 56334,
        "meta_bstar": 0.00023856578,
        "meta_mean_motion_dot": 5.801e-05,
        "meta_mean_motion_ddot": 0,
        "tle_line1": "1 41026U 15064A   25353.92430102  .00005801  00000+0  23857-3 0  9999",
        "tle_line2": "2 41026  97.2809 131.5143 0012612 103.1502 257.1144 15.24463093563344"
      },
      "geometry": {
        "type": "Point",
        "coordinates": [
          176.30616869860188,
          -79.66005105117557
        ]
      }
    },
    {
      "type": "Feature",
      "properties": {
        "norad_id": 41038,
        "name": "YAOGAN-29",
        "group": "resource",
        "lat": -24.874169137537017,
        "lon": 21.182092299390714,
        "alt_km": 626.1365234637733,
        "timestamp": "2025-12-20T05:41:49.675531+00:00",
        "meta_object_name": "YAOGAN-29",
        "meta_object_id": "2015-069A",
        "meta_epoch": "2025-12-19T23:19:56.900640",
        "meta_mean_motion": 14.8289176,
        "meta_eccentricity": 4.817e-05,
        "meta_inclination": 98.0213,
        "meta_ra_of_asc_node": 17.1674,
        "meta_arg_of_pericenter": 177.3167,
        "meta_mean_anomaly": 182.8049,
        "meta_ephemeris_type": 0,
        "meta_classification_type": "U",
        "meta_norad_cat_id": 41038,
        "meta_element_set_no": 999,
        "meta_rev_at_epoch": 54406,
        "meta_bstar": 0.00010904431,
        "meta_mean_motion_dot": 8.3e-06,
        "meta_mean_motion_ddot": 0,
        "tle_line1": "1 41038U 15069A   25353.97218635  .00000830  00000+0  10904-3 0  9993",
        "tle_line2": "2 41038  98.0213  17.1674 0000481 177.3167 182.8049 14.82891760544069"
      },
      "geometry": {
        "type": "Point",
        "coordinates": [
          21.182092299390714,
          -24.874169137537017
        ]
      }
    },
    {
      "type": "Feature",
      "properties": {
        "norad_id": 41167,
        "name": "KENT RIDGE 1",
        "group": "resource",
        "lat": -10.65492684160766,
        "lon": 110.78382767561675,
        "alt_km": 497.98274062784003,
        "timestamp": "2025-12-20T05:41:49.675542+00:00",
        "meta_object_name": "KENT RIDGE 1",
        "meta_object_id": "2015-077B",
        "meta_epoch": "2025-12-19T15:44:19.065408",
        "meta_mean_motion": 15.21687,
        "meta_eccentricity": 0.0008521,
        "meta_inclination": 14.9781,
        "meta_ra_of_asc_node": 159.8192,
        "meta_arg_of_pericenter": 228.6,
        "meta_mean_anomaly": 131.3589,
        "meta_ephemeris_type": 0,
        "meta_classification_type": "U",
        "meta_norad_cat_id": 41167,
        "meta_element_set_no": 999,
        "meta_rev_at_epoch": 55369,
        "meta_bstar": 0.00012437,
        "meta_mean_motion_dot": 3.652e-05,
        "meta_mean_motion_ddot": 0,
        "tle_line1": "1 41167U 15077B   25353.65577622  .00003652  00000+0  12437-3 0  9992",
        "tle_line2": "2 41167  14.9781 159.8192 0008521 228.6000 131.3589 15.21687000553698"
      },
      "geometry": {
        "type": "Point",
        "coordinates": [
          110.78382767561675,
          -10.65492684160766
        ]
      }
    },
    {
      "type": "Feature",
      "properties": {
        "norad_id": 41194,
        "name": "GAOFEN-4",
        "group": "resource",
        "lat": -0.0857137411250127,
        "lon": -79.72984893716374,
        "alt_km": 35789.003678141285,
        "timestamp": "2025-12-20T05:41:49.675555+00:00",
        "meta_object_name": "GAOFEN-4",
        "meta_object_id": "2015-083A",
        "meta_epoch": "2025-12-19T15:27:26.627616",
        "meta_mean_motion": 1.00273138,
        "meta_eccentricity": 0.0002945,
        "meta_inclination": 0.1878,
        "meta_ra_of_asc_node": 81.7841,
        "meta_arg_of_pericenter": 93.4275,
        "meta_mean_anomaly": 250.8523,
        "meta_ephemeris_type": 0,
        "meta_classification_type": "U",
        "meta_norad_cat_id": 41194,
        "meta_element_set_no": 999,
        "meta_rev_at_epoch": 3672,
        "meta_bstar": 0,
        "meta_mean_motion_dot": -3.11e-06,
        "meta_mean_motion_ddot": 0,
        "tle_line1": "1 41194U 15083A   25353.64405819 -.00000311  00000+0  00000+0 0  9995",
        "tle_line2": "2 41194   0.1878  81.7841 0002945  93.4275 250.8523  1.00273138 36722"
      },
      "geometry": {
        "type": "Point",
        "coordinates": [
          -79.72984893716374,
          -0.0857137411250127
        ]
      }
    },
    {
      "type": "Feature",
      "properties": {
        "norad_id": 41240,
        "name": "JASON-3",
        "group": "resource",
        "lat": 33.32351008987625,
        "lon": -54.936786425845156,
        "alt_km": 1311.3234680637834,
        "timestamp": "2025-12-20T05:41:49.675566+00:00",
        "meta_object_name": "JASON-3",
        "meta_object_id": "2016-002A",
        "meta_epoch": "2025-12-19T21:30:01.113408",
        "meta_mean_motion": 12.87626871,
        "meta_eccentricity": 0.00072145,
        "meta_inclination": 66.0398,
        "meta_ra_of_asc_node": 142.7791,
        "meta_arg_of_pericenter": 271.2454,
        "meta_mean_anomaly": 88.7738,
        "meta_ephemeris_type": 0,
        "meta_classification_type": "U",
        "meta_norad_cat_id": 41240,
        "meta_element_set_no": 999,
        "meta_rev_at_epoch": 46416,
        "meta_bstar": -3.457952e-06,
        "meta_mean_motion_dot": -6.3e-07,
        "meta_mean_motion_ddot": 0,
        "tle_line1": "1 41240U 16002A   25353.89584622 -.00000063  00000+0 -34580-5 0  9997",
        "tle_line2": "2 41240  66.0398 142.7791 0007214 271.2454  88.7738 12.87626871464165"
      },
      "geometry": {
        "type": "Point",
        "coordinates": [
          -54.936786425845156,
          33.32351008987625
        ]
      }
    },
    {
      "type": "Feature",
      "properties": {
        "norad_id": 41335,
        "name": "SENTINEL-3A",
        "group": "resource",
        "lat": -38.62817193804184,
        "lon": 66.11596875818782,
        "alt_km": 809.5084992166685,
        "timestamp": "2025-12-20T05:41:49.675577+00:00",
        "meta_object_name": "SENTINEL-3A",
        "meta_object_id": "2016-011A",
        "meta_epoch": "2025-12-19T21:27:52.916544",
        "meta_mean_motion": 14.26733263,
        "meta_eccentricity": 9.07e-05,
        "meta_inclination": 98.6305,
        "meta_ra_of_asc_node": 58.8069,
        "meta_arg_of_pericenter": 93.6014,
        "meta_mean_anomaly": 266.527,
        "meta_ephemeris_type": 0,
        "meta_classification_type": "U",
        "meta_norad_cat_id": 41335,
        "meta_element_set_no": 999,
        "meta_rev_at_epoch": 51249,
        "meta_bstar": 5.9500005e-05,
        "meta_mean_motion_dot": 1e-06,
        "meta_mean_motion_ddot": 0,
        "tle_line1": "1 41335U 16011A   25353.89436246  .00000100  00000+0  59500-4 0  9998",
        "tle_line2": "2 41335  98.6305  58.8069 0000907  93.6014 266.5270 14.26733263512490"
      },
      "geometry": {
        "type": "Point",
        "coordinates": [
          66.11596875818782,
          -38.62817193804184
        ]
      }
    },
    {
      "type": "Feature",
      "properties": {
        "norad_id": 41556,
        "name": "ZIYUAN 3-02 (ZY 3-02)",
        "group": "resource",
        "lat": 76.7312303824861,
        "lon": -78.25304799027448,
        "alt_km": 498.583705192691,
        "timestamp": "2025-12-20T05:41:49.675587+00:00",
        "meta_object_name": "ZIYUAN 3-02 (ZY 3-02)",
        "meta_object_id": "2016-033A",
        "meta_epoch": "2025-12-19T22:56:19.632192",
        "meta_mean_motion": 15.21151619,
        "meta_eccentricity": 0.00110081,
        "meta_inclination": 97.4041,
        "meta_ra_of_asc_node": 68.0033,
        "meta_arg_of_pericenter": 219.0963,
        "meta_mean_anomaly": 140.9478,
        "meta_ephemeris_type": 0,
        "meta_classification_type": "U",
        "meta_norad_cat_id": 41556,
        "meta_element_set_no": 999,
        "meta_rev_at_epoch": 53073,
        "meta_bstar": 0.00023641888,
        "meta_mean_motion_dot": 5.204e-05,
        "meta_mean_motion_ddot": 0,
        "tle_line1": "1 41556U 16033A   25353.95578278  .00005204  00000+0  23642-3 0  9993",
        "tle_line2": "2 41556  97.4041  68.0033 0011008 219.0963 140.9478 15.21151619530731"
      },
      "geometry": {
        "type": "Point",
        "coordinates": [
          -78.25304799027448,
          76.7312303824861
        ]
      }
    }
  ]
}